STARLINK-1331
1 45578U 20025AZ  26090.87954868  .00099492  00000+0  16091-2 0  9991
2 45578  53.0522 318.6649 0005168 172.7374 187.3710 15.52048877329127
